1998-067TE              
1 51442U 98067TE  22045.20077967  .00027679  00000+0  46743-3 0  9994
2 51442  51.6391 225.4961 0008021 150.4268 209.7176 15.51377104  2940
DAILI                   
1 51443U 98067TF  22044.87200462  .00058566  00000+0  93779-3 0  9995
2 51443  51.6390 227.0517 0008662 134.3308 225.8393 15.52502810  2857
CSG-2                   
1 51444U 22008A   22045.50759846  .00101160  00000+0  12164-1 0  9990
2 51444  97.8825 230.9692 0001919 185.8784 174.2608 14.83377321  2000
STARLINK-3167           
1 51460U 22010E   22045.50002315 -.00865784  00000+0 -35599-2 0  9992
2 51460  53.2174 119.3749 0004768 235.0355  93.5386 15.87223277  2945
STARLINK-3181           
1 51461U 22010F   22045.25001157 -.00793850  00000+0 -34138-2 0  9990
2 51461  53.2176 120.7231 0004124 264.1907  27.7463 15.86160762  2967
STARLINK-3166           
1 51462U 22010G   22045.25001157 -.00818299  00000+0 -35279-2 0  9993
2 51462  53.2174 120.7211 0003499 258.6637  34.0455 15.86173795  2935
STARLINK-3419           
1 51463U 22010H   22045.25001157 -.00872151  00000+0 -35046-2 0  9993
2 51463  53.2177 120.6310 0006171 268.1570  73.3577 15.87675137  2906
STARLINK-3189           
1 51464U 22010J   22045.25001157 -.00809715  00000+0 -34842-2 0  9993
2 51464  53.2173 120.7191 0004139 264.5680  28.9759 15.86184549  2915
STARLINK-3401           
1 51465U 22010K   22045.50002315 -.00862380  00000+0 -38169-2 0  9992
2 51465  53.2175 119.4595 0003050 242.4722  40.0842 15.85747030  3002
STARLINK-3178           
1 51467U 22010M   22045.25001157 -.00774120  00000+0 -30901-2 0  9999
2 51467  53.2173 120.6268 0005572 260.1709  82.0920 15.87597478  2964
STARLINK-3174           
1 51468U 22010N   22045.25001157 -.00796766  00000+0 -31822-2 0  9993
2 51468  53.2171 120.6320 0005542 251.2775  88.4794 15.87638097  2965
STARLINK-3182           
1 51469U 22010P   22045.25001157 -.00833234  00000+0 -35954-2 0  9996
2 51469  53.2174 120.7202 0003169 260.3387  32.7350 15.86194997  2967
STARLINK-3165           
1 51471U 22010R   22044.41667824 -.00869411  25306-3 -18239-2 0  9998
2 51471  53.2172 124.3996 0007945 267.1673 195.3674 15.98177164  2041
STARLINK-3415           
1 51472U 22010S   22045.25001157 -.00871927  00000+0 -35021-2 0  9996
2 51472  53.2177 120.6330 0005917 268.1201  72.4014 15.87688216  2960
FALCON 9 DEB            
1 51473U 22010T   22045.46557318  .03886301  11993-4  64426-3 0  9998
2 51473  53.2051 118.2868 0027848 209.2042 150.7447 16.31233727  2522
FALCON 9 DEB            
1 51474U 22010U   22045.47353875  .03111622  11905-4  66427-3 0  9995
2 51474  53.1987 118.3372 0035720 199.3330 160.6361 16.27930642  2528
FALCON 9 DEB            
1 51475U 22010V   22045.38920315  .08861764  12191-4  36742-3 0  9994
2 51475  53.2043 118.5154 0014882 207.9222 152.1030 16.42181204  2512
FALCON 9 DEB            
1 51476U 22010W   22045.45898956  .04640545  12033-4  60374-3 0  9999
2 51476  53.2046 118.2417 0026553 204.2106 155.7694 16.33621341  2521
LIGHT-1                 
1 51509U 98067TG  22044.88574347  .00027638  00000+0  47407-3 0  9998
2 51509  51.6418 227.1334 0009857 133.8255 226.3549 15.50922830  1675
GT-1                    
1 51510U 98067TH  22044.88459291  .00065126  00000+0  10814-2 0  9995
2 51510  51.6424 227.1323 0008698 130.7162 229.4594 15.51442665  1697
COSMOS 2553             
1 51511U 22011A   22044.65251108 -.00000109  00000+0 -20273-2 0  9996
2 51511  67.0890 216.2541 0003967 266.9953  93.0536 11.32883654   952
2022-013A               
1 51656U 22013A   22045.32435313  .00001685  00000+0  10000-3 0  9991
2 51656  97.5514  54.4333 0010461 248.6828 111.3339 15.12669034    40
2022-013B               
1 51657U 22013B   22045.52269634  .00001700  00000+0  10000-3 0  9993
2 51657  97.5560  54.6340 0009864 254.2569 105.7562 15.12982733    74
2022-013C               
1 51658U 22013C   22045.45651497  .00001708  00000+0  10000-3 0  9996
2 51658  97.5582  54.5668 0009301 257.0859 102.9171 15.13152406    61
2022-013D               
1 51659U 22013D   22045.45579144  .00006819  00000+0  35836-3 0  9997
2 51659  97.5714  54.6087 0033330 338.4436  21.5391 15.15532796    65
